CUTE-1 (CO-55)          
1 27844U 03031E   25244.99573954  .00000692  00000+0  32008-3 0  9992
2 27844  98.6788 252.1901 0008622 307.2277  52.8115 14.24056051150656
CUBESAT XI-IV (CO-57)   
1 27848U 03031J   25244.98380941  .00000582  00000+0  27576-3 0  9999
2 27848  98.6815 252.1195 0008817 326.4748  33.5871 14.23382256150370
CUBESAT XI-V            
1 28895U 05043F   25244.38134212  .00003506  00000+0  57522-3 0  9992
2 28895  98.2612  29.8445 0015216  45.1932 315.0508 14.71279482 59262
CUTE-1.7+APD II (CO-65) 
1 32785U 08021C   25245.25474677  .00012218  00000+0  85850-3 0  9998
2 32785  97.7940 217.1238 0007443 290.2972  69.7454 15.05241959941815
CANX-2                  
1 32790U 08021H   25244.90986040  .00008269  00000+0  62904-3 0  9993
2 32790  97.8295 215.3647 0008019 303.7803  56.2657 15.02356016941478
SEEDS II (CO-66)        
1 32791U 08021J   25244.92484415  .00025167  00000+0  11468-2 0  9999
2 32791  97.7344 226.9872 0002439 189.9551 170.1636 15.20648808943305
SWISSCUBE               
1 35932U 09051B   25245.18731547  .00002562  00000+0  52598-3 0  9997
2 35932  98.4187 142.9713 0007828  37.1054 323.0686 14.61520757847075
BEESAT-1                
1 35933U 09051C   25245.19632140  .00002168  00000+0  45286-3 0  9996
2 35933  98.4118 143.1825 0006458  50.6286 309.5485 14.60907023847128
ITUPSAT1                
1 35935U 09051E   25245.14607838  .00002003  00000+0  43025-3 0  9996
2 35935  98.4210 142.6014 0008781  56.6797 303.5242 14.59692480846705
TISAT 1                 
1 36799U 10035E   25245.19253215  .00032013  00000+0  15473-2 0  9999
2 36799  98.0519 164.6012 0004420 138.3903 221.7667 15.18553235823805
AEROCUBE 4.5A           
1 38767U 12048K   25245.15076179  .00056845  00000+0  13302-2 0  9998
2 38767  64.6469 302.7278 0092698 255.7458 103.3367 15.37346960327804
STRAND-1                
1 39090U 13009E   25244.44886324  .00000687  00000+0  24681-3 0  9994
2 39090  98.3854  66.9587 0009113  21.5628 338.5941 14.36875833655590
BRITE-AUSTRIA           
1 39091U 13009F   25245.04183673  .00000462  00000+0  17244-3 0  9997
2 39091  98.3915  66.7789 0010745  26.7369 333.4370 14.36349807655680
NEE-01 PEGASO           
1 39151U 13018B   25245.07394800  .00005916  00000+0  59879-3 0  9992
2 39151  98.0833  15.8881 0013878  36.7276 323.4890 14.91290899667720
POPACS 1                
1 39268U 13055D   25244.32029569  .00097698  14326-5  68172-3 0  9992
2 39268  80.9668 342.7799 0199603  52.4483 309.4710 15.51860841627561
POPACS 2                
1 39269U 13055E   25245.06705366  .00030964  00000+0  58855-3 0  9999
2 39269  80.9949 111.0684 0467324  31.5699 331.2654 14.78379713620440
POPACS 3                
1 39270U 13055F   25245.23438399  .00011298  00000+0  28509-3 0  9991
2 39270  81.0062 179.8699 0577099 222.9123 132.5669 14.49463153596740
ZACUBE-1 (TSHEPISOSAT)  
1 39417U 13066B   25245.14184554  .00009586  00000+0  81344-3 0  9990
2 39417  97.7856 201.7757 0044802 128.3924 232.1335 14.97347410637560
WNISAT-1                
1 39423U 13066H   25245.26047934  .00001855  00000+0  34801-3 0  9997
2 39423  97.6861  50.6350 0166213  59.0328 302.7084 14.57282011624787
TRITON-1                
1 39427U 13066M   25245.29535336  .00006852  00000+0  85540-3 0  9990
2 39427  97.8291 156.9185 0095504  91.3825 269.8330 14.79461653631488
GOMX-1                  
1 39430U 13066Q   25245.29074985  .00003932  00000+0  61207-3 0  9992
2 39430  97.6748  98.7368 0130337 281.4541  77.2051 14.67943046627657
CUBEBUG-2 (LO-74)       
1 39440U 13066AA  25245.28138140  .00008150  00000+0  81146-3 0  9997
2 39440  97.8527 189.3043 0059410 260.2618  99.1887 14.90562825634054
NEE-02 KRYSAOR          
1 39441U 13066AB  25244.77119744  .00005515  00000+0  63136-3 0  9991
2 39441  97.8566 181.9080 0066878 295.4609  63.9696 14.84756262633377
FUNCUBE-1 (AO-73)       
1 39444U 13066AE  25245.17461858  .00017415  00000+0  12584-2 0  9997
2 39444  97.7893 207.4970 0043000 100.6838 259.9233 15.03372210636294
UWE-3                   
1 39446U 13066AG  25244.83677886  .00006652  00000+0  62008-3 0  9999
2 39446  97.8290 195.3520 0051836 197.5412 162.4019 14.93550335634486
BRITE-CA1 (TORONTO)     
1 40020U 14033L   25245.08394188  .00003072  00000+0  47469-3 0  9990
2 40020  97.9362  15.1630 0080998 118.8054 242.1317 14.71807568599821
DUCHIFAT-1              
1 40021U 14033M   25245.01650685  .00041777  00000+0  13467-2 0  9995
2 40021  98.0939 266.8914 0008397  39.2497 320.9350 15.32020421611239
NANOSATC-BR1            
1 40024U 14033Q   25244.97756120  .00023750  00000+0  10942-2 0  9999
2 40024  98.0943 248.8927 0006847 104.3943 255.8050 15.20270305610023
QB50P1                  
1 40025U 14033R   25244.90746056  .00015572  00000+0  91586-3 0  9997
2 40025  98.0903 232.2891 0011993 124.0954 236.1415 15.11702361609371
QB50P2                  
1 40032U 14033Y   25245.19900403  .00016739  00000+0  10485-2 0  9999
2 40032  98.0515 220.7421 0010515  78.8883 281.3526 15.09403446609133
PERSEUS-M2              
1 40037U 14033AD  25245.30201955  .00004114  00000+0  39068-3 0  9996
2 40037  97.9574 185.9268 0012537 166.8383 193.3166 14.94022034607774
PERSEUS-M1              
1 40039U 14033AF  25244.81977229  .00004092  00000+0  38857-3 0  9997
2 40039  97.9295 180.1056 0012255 166.9779 193.1759 14.94023185607555
POLYITAN-1              
1 40042U 14033AJ  25245.24758762  .00034927  00000+0  15810-2 0  9991
2 40042  98.1083 241.7585 0011648  76.6111 283.6420 15.20749507609645
TIGRISAT                
1 40043U 14033AK  25244.66535674  .00003930  00000+0  47628-3 0  9995
2 40043  97.7460  37.3079 0049924 301.4905  58.1435 14.83296322602829
AEROCUBE 6A             
1 40045U 14033AM  25245.19467974  .00014283  00000+0  13493-2 0  9998
2 40045  97.7004  51.5891 0041313 257.9645 101.6943 14.93168876603568
AEROCUBE 6B             
1 40046U 14033AN  25245.25556050  .00015779  00000+0  14457-2 0  9992
2 40046  97.6981  50.9089 0040080 250.4232 109.2659 14.94387591603672
CANX-4                  
1 40055U 14034C   25244.56993139  .00002045  00000+0  27501-3 0  9996
2 40055  98.3522 103.7254 0012123 213.7480 146.2960 14.80390031601814
CANX-5                  
1 40056U 14034D   25245.04467402  .00002095  00000+0  28143-3 0  9998
2 40056  98.3523 104.2460 0012148 212.3068 147.7400 14.80406239592693
UKUBE-1                 
1 40074U 14037F   25244.87963468  .00016487  00000+0  11121-2 0  9991
2 40074  98.4001 214.6599 0003395  78.2957 281.8648 15.06724987605033
BRITE-PL2 (HEWELIUSZ)   
1 40119U 14049B   25245.28331203  .00004831  00000+0  47053-3 0  9990
2 40119  97.8934 350.7359 0014167 348.7774  11.3126 14.92903688598464
AEROCUBE 5C             
1 40965U 15058B   25245.24729159  .00008819  00000+0  76411-3 0  9997
2 40965  64.7681  76.9381 0152706 172.6134 187.7281 14.89032858322747
AEROCUBE 7              
1 40966U 15058C   25244.85564103  .00011294  00000+0  90942-3 0  9996
2 40966  64.7640  65.9639 0144001 172.7006 187.6253 14.92464945322877
FOX-1A (AO-85)          
1 40967U 15058D   25244.99738545  .00006987  00000+0  62346-3 0  9995
2 40967  64.7760  93.1394 0149041 167.2365 193.2588 14.88529537 70630
SINOD-D 1               
1 40968U 15058E   25245.26145940  .00012403  00000+0  10111-2 0  9990
2 40968  64.7760  78.5444 0138227 165.9676 194.5342 14.92535615 73632
SNAP-3 ALICE            
1 40970U 15058G   25244.75014394  .00048376  00000+0  18288-2 0  9995
2 40970  64.7661 350.3099 0067363 167.8364 192.4412 15.24555810 72481
LMRST-SAT               
1 40971U 15058H   25245.01889570  .00007178  00000+0  64051-3 0  9997
2 40971  64.7758  88.9123 0151519 168.7954 191.6596 14.88242027 70634
SNAP-3 EDDIE            
1 40972U 15058J   25244.64203400  .00048480  00000+0  17866-2 0  9990
2 40972  64.7588 342.9464 0071871 170.2722 189.9819 15.25094343 74584
PROPCUBE 3              
1 40973U 15058K   25244.91175822  .00009784  00000+0  81086-3 0  9997
2 40973  64.7691  71.4664 0145716 170.9155 189.4649 14.91328379 71767
BISONSAT                
1 40974U 15058L   25245.10132456  .00034204  00000+0  19670-2 0  9990
2 40974  64.7644  19.3893 0105794 169.3037 191.0370 15.07626425 72058
SNAP-3 JIMI             
1 40975U 15058M   25244.82708371  .00016315  00000+0  11764-2 0  9993
2 40975  64.7672  49.2938 0129555 170.0484 190.3246 14.97720084 70964
PROPCUBE 1 (FLORA)      
1 40976U 15058N   25245.05200492  .00005993  00000+0  55724-3 0  9996
2 40976  64.7747 106.8963 0151120 170.6866 189.7106 14.86930612 73383
SINOD-D 3               
1 40977U 15058P   25245.00996464  .00008871  00000+0  75720-3 0  9999
2 40977  64.7727  93.8049 0140561 169.9682 190.4291 14.90834919 71746
HORYU-4                 
1 41340U 16012D   25245.26798385  .00051756  00000+0  12219-2 0  9998
2 41340  30.9964 280.9911 0006918 217.1523 142.8645 15.40580111525840
RAVAN                   
1 41849U 16067B   25244.54684526  .00025655  00000+0  81500-3 0  9992
2 41849  98.0356 100.5912 0007484 308.4825  51.5743 15.32608471483197
CELTEE 1                
1 41850U 16067C   25245.04077643  .00011156  00000+0  59356-3 0  9991
2 41850  98.1024  87.1435 0002132 114.4975 245.6478 15.15441199482179
OPTICUBE 04             
1 41851U 16067D   25245.25346357  .00005403  00000+0  35777-3 0  9995
2 41851  98.0932  77.4155 0016657  15.7230 344.4510 15.07674671481754
AEROCUBE 8D             
1 41852U 16067E   25244.82779953  .00012104  00000+0  58673-3 0  9996
2 41852  98.1054  88.5532 0005066  60.7442 299.4297 15.18682488482210
AEROCUBE 8C             
1 41853U 16067F   25245.02350038  .00013378  00000+0  64505-3 0  9994
2 41853  98.0906  86.4081 0005519 348.4155  11.6950 15.18840013482234
PROMETHEUS 2-1          
1 41854U 16067G   25244.60910236  .00094197  00000+0  12949-2 0  9992
2 41854  98.0646 108.2627 0003073 312.9248  47.1747 15.56966029483447
